{
    "links": {
        "self": "http://www.neowsapp.com/rest/v1/neo/3137737?api_key=iIulBulltgU6a56xZRHN4H3l9WmuAYTsLGpBGhQ2"
    },
    "id": "3137737",
    "neo_reference_id": "3137737",
    "name": "(2002 TZ59)",
    "designation": "2002 TZ59",
    "nasa_jpl_url": "http://ssd.jpl.nasa.gov/sbdb.cgi?sstr=3137737",
    "absolute_magnitude_h": 23.1,
    "estimated_diameter": {
        "kilometers": {
            "estimated_diameter_min": 0.063760979,
            "estimated_diameter_max": 0.1425738833
        },
        "meters": {
            "estimated_diameter_min": 63.7609789875,
            "estimated_diameter_max": 142.5738833281
        },
        "miles": {
            "estimated_diameter_min": 0.0396192233,
            "estimated_diameter_max": 0.0885912765
        },
        "feet": {
            "estimated_diameter_min": 209.1895703015,
            "estimated_diameter_max": 467.7620993781
        }
    },
    "is_potentially_hazardous_asteroid": false,
    "close_approach_data": [
        {
            "close_approach_date": "2002-09-27",
            "close_approach_date_full": "2002-Sep-27 21:32",
            "epoch_date_close_approach": 1033162320000,
            "relative_velocity": {
                "kilometers_per_second": "29.3021601915",
                "kilometers_per_hour": "105487.7766893269",
                "miles_per_hour": "65546.0021323209"
            },
            "miss_distance": {
                "astronomical": "0.0162855562",
                "lunar": "6.3350813618",
                "kilometers": "2436284.519285294",
                "miles": "1513837.0027292972"
            },
            "orbiting_body": "Earth"
        }
    ],
    "orbital_data": {
        "orbit_id": "8",
        "orbit_determination_date": "2017-04-06 09:14:46",
        "first_observation_date": "2002-10-04",
        "last_observation_date": "2002-10-08",
        "data_arc_in_days": 4,
        "observations_used": 30,
        "orbit_uncertainty": "9",
        "minimum_orbit_intersection": ".015854",
        "jupiter_tisserand_invariant": "2.794",
        "epoch_osculation": "2452553.5",
        "eccentricity": ".8366256239216363",
        "semi_major_axis": "2.524042925923539",
        "inclination": "16.34787156890106",
        "ascending_node_longitude": "7.393475678073428",
        "orbital_period": "1464.68263193901",
        "perihelion_distance": ".4123639382177658",
        "perihelion_argument": "249.6917156549202",
        "aphelion_distance": "4.635721913629313",
        "perihelion_time": "2452501.831837658984",
        "mean_anomaly": "12.69936437912257",
        "mean_motion": ".2457870340985858",
        "equinox": "J2000",
        "orbit_class": {
            "orbit_class_type": "APO",
            "orbit_class_description": "Near-Earth asteroid orbits which cross the Earth’s orbit similar to that of 1862 Apollo",
            "orbit_class_range": "a (semi-major axis) > 1.0 AU; q (perihelion) < 1.017 AU"
        }
    },
    "is_sentry_object": false
}